[{"OBJECT_NAME":"STARLINK-34936","OBJECT_ID":"2025-224S","EPOCH":"2026-03-09T05:17:00.344832","MEAN_MOTION":15.3018483,"ECCENTRICITY":0.0001186,"INCLINATION":53.161,"RA_OF_ASC_NODE":13.4363,"ARG_OF_PERICENTER":75.2552,"MEAN_ANOMALY":284.858,"EPHEMERIS_TYPE":0,"CLASSIFICATION_TYPE":"U","NORAD_CAT_ID":65898,"ELEMENT_SET_NO":999,"REV_AT_EPOCH":2480,"BSTAR":0.00079360732,"MEAN_MOTION_DOT":0.00023208,"MEAN_MOTION_DDOT":0},{"OBJECT_NAME":"OBJECT BE","OBJECT_ID":"2025-313BE","EPOCH":"2026-03-09T16:43:59.380320","MEAN_MOTION":15.29801687,"ECCENTRICITY":0.00072083,"INCLINATION":97.3989,"RA_OF_ASC_NODE":145.3568,"ARG_OF_PERICENTER":335.3714,"MEAN_ANOMALY":24.7181,"EPHEMERIS_TYPE":0,"CLASSIFICATION_TYPE":"U","NORAD_CAT_ID":67482,"ELEMENT_SET_NO":999,"REV_AT_EPOCH":797,"BSTAR":0.0026504328,"MEAN_MOTION_DOT":0.00077178,"MEAN_MOTION_DDOT":0}]
