STARLINK-34936          
1 65898U 25224S   26068.22014288  .00023208  00000+0  79361-3 0  9993
2 65898  53.1610  13.4363 0001186  75.2552 284.8580 15.30184830 24808
2025-313BE              
1 67482U 25313BE  26068.69721505  .00077178  00000+0  26504-2 0  9996
2 67482  97.3989 145.3568 0007208 335.3714  24.7181 15.29801687  7972
